start=new Date('2023-05-13T00:00:00.000Z').valueOf();
sats=[{"NORAD_CAT_ID":"47811","RCS_SIZE":"LARGE","CLASSIFICATION_TYPE":"U","MEAN_ELEMENT_THEORY":"SGP4","COUNTRY_CODE":"US","TLE_LINE2":"2 47811  53.0516 183.5936 0002089  80.5489 279.5736 15.06396949121411","EPHEMERIS_TYPE":"0","TLE_LINE1":"1 47811U 21018AA  23132.87925085  .00020327  00000-0  13797-2 0  9991","ECCENTRICITY":"0.00020890","GP_ID":"231707087","FILE":"3906381","DECAY_DATE":null,"EPOCH":"2023-05-12T21:06:07.273440","MEAN_MOTION_DDOT":"0.0000000000000","OBJECT_ID":"2021-018AA","ELEMENT_SET_NO":"999","INCLINATION":"53.0516","LAUNCH_DATE":"2021-03-11","PERIAPSIS":"545.776","REV_AT_EPOCH":"12141","ARG_OF_PERICENTER":"80.5489","BSTAR":"0.00137970000000","RA_OF_ASC_NODE":"183.5936","SEMIMAJOR_AXIS":"6925.358","REF_FRAME":"TEME","APOAPSIS":"548.670","MEAN_MOTION_DOT":"0.00020327","OBJECT_NAME":"STARLINK-2392","OBJECT_TYPE":"PAYLOAD","MEAN_ANOMALY":"279.5736","TIME_SYSTEM":"UTC","PERIOD":"95.592","CENTER_NAME":"EARTH","SITE":"AFETR","MEAN_MOTION":"15.06396949"},{"NORAD_CAT_ID":"47812","RCS_SIZE":"LARGE","COUNTRY_CODE":"US","MEAN_ELEMENT_THEORY":"SGP4","TLE_LINE2":"2 47812  53.0519 215.8052 0001794 138.6091 221.5034 15.06394989120519","CLASSIFICATION_TYPE":"U","EPHEMERIS_TYPE":"0","TLE_LINE1":"1 47812U 21018AB  23132.38624651  .00021095  00000-0  14310-2 0  9998","FILE":"3906114","ECCENTRICITY":"0.00017940","GP_ID":"231679717","EPOCH":"2023-05-12T09:16:11.698464","DECAY_DATE":null,"MEAN_MOTION_DDOT":"0.0000000000000","INCLINATION":"53.0519","ELEMENT_SET_NO":"999","OBJECT_ID":"2021-018AB","REV_AT_EPOCH":"12051","ARG_OF_PERICENTER":"138.6091","LAUNCH_DATE":"2021-03-11","PERIAPSIS":"545.987","BSTAR":"0.00143100000000","RA_OF_ASC_NODE":"215.8052","REF_FRAME":"TEME","SEMIMAJOR_AXIS":"6925.364","OBJECT_NAME":"STARLINK-2393","APOAPSIS":"548.471","MEAN_MOTION_DOT":"0.00021095","OBJECT_TYPE":"PAYLOAD","PERIOD":"95.592","CENTER_NAME":"EARTH","SITE":"AFETR","TIME_SYSTEM":"UTC","MEAN_ANOMALY":"221.5034","MEAN_MOTION":"15.06394989"},{"CLASSIFICATION_TYPE":"U","TLE_LINE2":"2 47813  53.0526 185.8743 0001112 106.5839 253.5272 15.06407334121338","COUNTRY_CODE":"US","MEAN_ELEMENT_THEORY":"SGP4","RCS_SIZE":"LARGE","NORAD_CAT_ID":"47813","EPHEMERIS_TYPE":"0","GP_ID":"231708084","ECCENTRICITY":"0.00011120","FILE":"3906381","TLE_LINE1":"1 47813U 21018AC  23132.37058003  .00009713  00000-0  66992-3 0  9997","DECAY_DATE":null,"EPOCH":"2023-05-12T08:53:38.114592","MEAN_MOTION_DDOT":"0.0000000000000","PERIAPSIS":"546.421","LAUNCH_DATE":"2021-03-11","ARG_OF_PERICENTER":"106.5839","REV_AT_EPOCH":"12133","OBJECT_ID":"2021-018AC","ELEMENT_SET_NO":"999","INCLINATION":"53.0526","REF_FRAME":"TEME","SEMIMAJOR_AXIS":"6925.326","RA_OF_ASC_NODE":"185.8743","BSTAR":"0.00066992000000","OBJECT_TYPE":"PAYLOAD","MEAN_MOTION_DOT":"0.00009713","APOAPSIS":"547.961","OBJECT_NAME":"STARLINK-2394","MEAN_MOTION":"15.06407334","MEAN_ANOMALY":"253.5272","TIME_SYSTEM":"UTC","SITE":"AFETR","CENTER_NAME":"EARTH","PERIOD":"95.592"},{"MEAN_MOTION":"15.06410762","MEAN_ANOMALY":"277.0693","TIME_SYSTEM":"UTC","SITE":"AFETR","CENTER_NAME":"EARTH","PERIOD":"95.591","OBJECT_TYPE":"PAYLOAD","MEAN_MOTION_DOT":"0.00009835","APOAPSIS":"548.292","OBJECT_NAME":"STARLINK-2395","SEMIMAJOR_AXIS":"6925.316","REF_FRAME":"TEME","RA_OF_ASC_NODE":"207.5614","BSTAR":"0.00067801000000","PERIAPSIS":"546.069","LAUNCH_DATE":"2021-03-11","REV_AT_EPOCH":"12100","ARG_OF_PERICENTER":"83.0478","OBJECT_ID":"2021-018AD","ELEMENT_SET_NO":"999","INCLINATION":"53.0523","DECAY_DATE":null,"MEAN_MOTION_DDOT":"0.0000000000000","EPOCH":"2023-05-11T23:54:53.970336","GP_ID":"231670768","ECCENTRICITY":"0.00016050","FILE":"3905921","TLE_LINE1":"1 47814U 21018AD  23131.99645799  .00009835  00000-0  67801-3 0  9994","EPHEMERIS_TYPE":"0","CLASSIFICATION_TYPE":"U","TLE_LINE2":"2 47814  53.0523 207.5614 0001605  83.0478 277.0693 15.06410762121001","COUNTRY_CODE":"US","MEAN_ELEMENT_THEORY":"SGP4","RCS_SIZE":"LARGE","NORAD_CAT_ID":"47814"},{"ARG_OF_PERICENTER":"91.8246","REV_AT_EPOCH":"12073","LAUNCH_DATE":"2021-03-11","PERIAPSIS":"546.372","ELEMENT_SET_NO":"999","INCLINATION":"53.0529","OBJECT_ID":"2021-018AE","REF_FRAME":"TEME","SEMIMAJOR_AXIS":"6925.363","BSTAR":"0.00011116000000","RA_OF_ASC_NODE":"200.9243","OBJECT_TYPE":"PAYLOAD","OBJECT_NAME":"STARLINK-2396","APOAPSIS":"548.083","MEAN_MOTION_DOT":"0.00001375","MEAN_MOTION":"15.06395359","PERIOD":"95.592","CENTER_NAME":"EARTH","SITE":"AFETR","TIME_SYSTEM":"UTC","MEAN_ANOMALY":"268.2884","MEAN_ELEMENT_THEORY":"SGP4","COUNTRY_CODE":"US","TLE_LINE2":"2 47815  53.0529 200.9243 0001235  91.8246 268.2884 15.06395359120739","CLASSIFICATION_TYPE":"U","NORAD_CAT_ID":"47815","RCS_SIZE":"LARGE","EPHEMERIS_TYPE":"0","FILE":"3906122","ECCENTRICITY":"0.00012350","GP_ID":"231680027","TLE_LINE1":"1 47815U 21018AE  23132.35998563  .00001375  00000-0  11116-3 0  9995","EPOCH":"2023-05-12T08:38:22.758432","DECAY_DATE":null,"MEAN_MOTION_DDOT":"0.0000000000000"},{"APOAPSIS":"547.961","MEAN_MOTION_DOT":"-0.00000206","OBJECT_NAME":"STARLINK-2399","OBJECT_TYPE":"PAYLOAD","TIME_SYSTEM":"UTC","MEAN_ANOMALY":"278.9242","PERIOD":"95.593","CENTER_NAME":"EARTH","SITE":"AFETR","MEAN_MOTION":"15.06388737","OBJECT_ID":"2021-018AF","INCLINATION":"53.0533","ELEMENT_SET_NO":"999","LAUNCH_DATE":"2021-03-11","PERIAPSIS":"546.535","REV_AT_EPOCH":"12099","ARG_OF_PERICENTER":"81.1863","RA_OF_ASC_NODE":"205.8844","BSTAR":"0.00000507690000","REF_FRAME":"TEME","SEMIMAJOR_AXIS":"6925.383","TLE_LINE1":"1 47816U 21018AF  23132.36873881 -.00000206  00000-0  50769-5 0  9994","ECCENTRICITY":"0.00010290","GP_ID":"231706838","FILE":"3906381","DECAY_DATE":null,"MEAN_MOTION_DDOT":"0.0000000000000","EPOCH":"2023-05-12T08:50:59.033184","NORAD_CAT_ID":"47816","RCS_SIZE":"LARGE","CLASSIFICATION_TYPE":"U","COUNTRY_CODE":"US","MEAN_ELEMENT_THEORY":"SGP4","TLE_LINE2":"2 47816  53.0533 205.8844 0001029  81.1863 278.9242 15.06388737120990","EPHEMERIS_TYPE":"0"},{"REV_AT_EPOCH":"12059","ARG_OF_PERICENTER":"70.7804","LAUNCH_DATE":"2021-03-11","PERIAPSIS":"546.116","INCLINATION":"53.0525","ELEMENT_SET_NO":"999","OBJECT_ID":"2021-018AG","SEMIMAJOR_AXIS":"6925.264","REF_FRAME":"TEME","RA_OF_ASC_NODE":"207.8880","BSTAR":"0.00106190000000","OBJECT_TYPE":"PAYLOAD","OBJECT_NAME":"STARLINK-2400","APOAPSIS":"548.141","MEAN_MOTION_DOT":"0.00015583","MEAN_MOTION":"15.06427656","PERIOD":"95.590","CENTER_NAME":"EARTH","SITE":"AFETR","MEAN_ANOMALY":"289.3343","TIME_SYSTEM":"UTC","MEAN_ELEMENT_THEORY":"SGP4","COUNTRY_CODE":"US","TLE_LINE2":"2 47817  53.0525 207.8880 0001462  70.7804 289.3343 15.06427656120592","CLASSIFICATION_TYPE":"U","NORAD_CAT_ID":"47817","RCS_SIZE":"LARGE","EPHEMERIS_TYPE":"0","FILE":"3905722","ECCENTRICITY":"0.00014620","GP_ID":"231644299","TLE_LINE1":"1 47817U 21018AG  23131.92272521  .00015583  00000-0  10619-2 0  9990","EPOCH":"2023-05-11T22:08:43.458144","DECAY_DATE":null,"MEAN_MOTION_DDOT":"0.0000000000000"},{"SITE":"AFETR","CENTER_NAME":"EARTH","PERIOD":"95.592","TIME_SYSTEM":"UTC","MEAN_ANOMALY":"298.9995","MEAN_MOTION":"15.06403831","OBJECT_NAME":"STARLINK-2401","MEAN_MOTION_DOT":"0.00014223","APOAPSIS":"548.293","OBJECT_TYPE":"PAYLOAD","BSTAR":"0.00097168000000","RA_OF_ASC_NODE":"212.7646","SEMIMAJOR_AXIS":"6925.337","REF_FRAME":"TEME","INCLINATION":"53.0530","ELEMENT_SET_NO":"999","OBJECT_ID":"2021-018AH","ARG_OF_PERICENTER":"61.1152","REV_AT_EPOCH":"12086","PERIAPSIS":"546.110","LAUNCH_DATE":"2021-03-11","EPOCH":"2023-05-11T22:46:31.513440","DECAY_DATE":null,"MEAN_MOTION_DDOT":"0.0000000000000","TLE_LINE1":"1 47818U 21018AH  23131.94897585  .00014223  00000-0  97168-3 0  9991","FILE":"3905921","GP_ID":"231670269","ECCENTRICITY":"0.00015760","EPHEMERIS_TYPE":"0","RCS_SIZE":"LARGE","NORAD_CAT_ID":"47818","TLE_LINE2":"2 47818  53.0530 212.7646 0001576  61.1152 298.9995 15.06403831120868","MEAN_ELEMENT_THEORY":"SGP4","COUNTRY_CODE":"US","CLASSIFICATION_TYPE":"U"},{"INCLINATION":"53.0528","ELEMENT_SET_NO":"999","OBJECT_ID":"2021-018AJ","REV_AT_EPOCH":"12060","ARG_OF_PERICENTER":"105.2552","PERIAPSIS":"546.488","LAUNCH_DATE":"2021-03-11","BSTAR":"0.00093697000000","RA_OF_ASC_NODE":"207.8671","REF_FRAME":"TEME","SEMIMAJOR_AXIS":"6925.329","OBJECT_NAME":"STARLINK-2402","MEAN_MOTION_DOT":"0.00013705","APOAPSIS":"547.900","OBJECT_TYPE":"PAYLOAD","SITE":"AFETR","CENTER_NAME":"EARTH","PERIOD":"95.592","MEAN_ANOMALY":"254.8550","TIME_SYSTEM":"UTC","MEAN_MOTION":"15.06406396","RCS_SIZE":"LARGE","NORAD_CAT_ID":"47819","TLE_LINE2":"2 47819  53.0528 207.8671 0001020 105.2552 254.8550 15.06406396120606","MEAN_ELEMENT_THEORY":"SGP4","COUNTRY_CODE":"US","CLASSIFICATION_TYPE":"U","EPHEMERIS_TYPE":"0","TLE_LINE1":"1 47819U 21018AJ  23131.92547582  .00013705  00000-0  93697-3 0  9996","FILE":"3905697","GP_ID":"231643590","ECCENTRICITY":"0.00010200","EPOCH":"2023-05-11T22:12:41.110848","DECAY_DATE":null,"MEAN_MOTION_DDOT":"0.0000000000000"},{"TIME_SYSTEM":"UTC","MEAN_ANOMALY":"278.4861","SITE":"AFETR","CENTER_NAME":"EARTH","PERIOD":"95.593","MEAN_MOTION":"15.06382031","MEAN_MOTION_DOT":"0.00012385","APOAPSIS":"548.070","OBJECT_NAME":"STARLINK-2403","OBJECT_TYPE":"PAYLOAD","RA_OF_ASC_NODE":"215.8726","BSTAR":"0.00084926000000","REF_FRAME":"TEME","SEMIMAJOR_AXIS":"6925.404","OBJECT_ID":"2021-018AK","INCLINATION":"53.0532","ELEMENT_SET_NO":"999","PERIAPSIS":"546.467","LAUNCH_DATE":"2021-03-11","REV_AT_EPOCH":"12091","ARG_OF_PERICENTER":"81.6259","EPOCH":"2023-05-12T08:54:58.120992","DECAY_DATE":null,"MEAN_MOTION_DDOT":"0.0000000000000","TLE_LINE1":"1 47820U 21018AK  23132.37150603  .00012385  00000-0  84926-3 0  9990","GP_ID":"231707338","ECCENTRICITY":"0.00011570","FILE":"3906381","EPHEMERIS_TYPE":"0","RCS_SIZE":"LARGE","NORAD_CAT_ID":"47820","CLASSIFICATION_TYPE":"U","TLE_LINE2":"2 47820  53.0532 215.8726 0001157  81.6259 278.4861 15.06382031120915","COUNTRY_CODE":"US","MEAN_ELEMENT_THEORY":"SGP4"}];
